long;lat;nombre;domicilio;nro_est;dire_norm;capacidad;cluster;lat_centroide;long_centroide
-58,39245207;-34,58313308;Facultad de Derecho;Av. Pres.Figueroa Alcorta y  Juan A.Bibiloni;1;FIGUEROA ALCORTA, PRES. AV. y BIBILONI, JUAN A.;20;1;-34,58845369;-58,39319024
-58,37482179;-34,59258881;Retiro;Av. Dr.Jose Ramos Mejia y Del Libertador Av;2;DEL LIBERTADOR AV. y RAMOS MEJIA, JOSE MARIA, DR. AV.;12;18;-34,59447543;-58,37628321
-58,36891784;-34,61124202;Aduana;Av. Ing.Huergo y Av. Belgrano;3;HUERGO, ING. AV. y BELGRANO AV.;12;14;-34,61491153;-58,36574412
-58,36895038;-34,60172109;Plaza Roma;Lavalle y Bouchard;4;LAVALLE y BOUCHARD;12;5;-34,60320526;-58,37034242
-58,42099704;-34,58012734;Plaza Italia;Av. Santa Fe y Av. Sarmiento;5;SARMIENTO AV. y CALZADA CIRCULAR PLAZA ITALIA;42;11;-34,57416223;-58,41699018
-58,36970867;-34,62830131;Parque Lezama;Av Martin Garcia e Irala;6;GARCIA, MARTIN AV. e IRALA;12;15;-34,62707235;-58,37307255
-58,3809896;-34,6058405;Obelisco;Av. 9 de Julio y Tte. Gral Juan Domingo Peron;7;PELLEGRINI, CARLOS y PERON, JUAN DOMINGO, TTE. GENERAL;10;12;-34,60280939;-58,38223635
-58,38925326;-34,60993046;Congreso;Av. Hipolito Yrigoyen y Virrey Ceballos;8;YRIGOYEN, HIPOLITO AV. y CEVALLOS, VIRREY;24;13;-34,61087343;-58,39112781
-58,40714467;-34,58391457;Parque Las Heras;Parque Las Heras;9;DIAZ, CNEL. AV. y FRENCH;24;23;-34,58245986;-58,40662574
-58,36574586;-34,61555143;Puerto Madero - UCA;Moreau de Justo 1500;10;1500 MOREAU DE JUSTO, ALICIA AV.;12;14;-34,61491153;-58,36574412
-58,38502161;-34,60131281;Tribunales;Tribunales;11;651 TALCAHUANO;12;12;-34,60280939;-58,38223635
-58,38894887;-34,59317728;Plaza Vicente Lopez;Plaza Vicente Lopez;12;PARANA y JUNCAL;10;1;-34,58845369;-58,39319024
-58,40659928;-34,609622;Once;Plaza Miserere;13;RIVADAVIA AV. y PUEYRREDON AV.;20;6;-34,61401247;-58,40832707
-58,42631986;-34,5777875;Pacifico;Pacifico;14;580 BULLRICH, INT. AV.;20;21;-34,58015377;-58,43447518
-58,37471724;-34,60995934;Legislatura (ex Plaza de Mayo);Peru y Diagonal Sur;16;PERU y ROCA, JULIO A., PRESIDENTE AV.;12;2;-34,6137215;-58,37767926
-58,41883221;-34,60639853;Plaza Almagro;Plaza Almagro;17;BULNES y PERON, JUAN DOMINGO, TTE. GENERAL;12;4;-34,60324799;-58,41692913
-58,38048066;-34,61737315;Independencia;Av. Independencia y 9 de Julio;18;INDEPENDENCIA AV. y 9 DE JULIO AV.;12;2;-34,6137215;-58,37767926
-58,37754893;-34,59540479;Plaza San Martin;Plaza San Martin;19;750 SANTA FE AV.;24;18;-34,59447543;-58,37628321
-58,44178851;-34,58003612;Distrito Audiovisual;Zapiola y Dorrego;20;1 ZAPIOLA;12;21;-34,58015377;-58,43447518
-58,40661339;-34,64002924;Parque Patricios;Iguazu y Uspallata;21;IGUAZU y USPALLATA;24;9;-34,63585199;-58,40822621
-58,38257046;-34,59409984;Arenales;Arenales y Cerrito;22;ARENALES y CERRITO;12;18;-34,59447543;-58,37628321
-58,37956612;-34,60029578;Suipacha;Suipacha y Viamonte;23;691 SUIPACHA;12;12;-34,60280939;-58,38223635
-58,38076694;-34,61057222;Alsina;Adolfo Alsina y Bernardo de Irigoyen;24;ALSINA, ADOLFO e IRIGOYEN, BERNARDO DE;18;2;-34,6137215;-58,37767926
-58,41606502;-34,58952073;Plaza Guemes;Salguero Jeronimo y Mansilla;25;SALGUERO, JERONIMO y MANSILLA, LUCIO NORBERTO, GENERAL;24;8;-34,58900656;-58,42230475
-58,36360359;-34,60100069;Juana Manso;Emma de la Barra y Juana Manso;26;DE LA BARRA,  EMMA y MANSO JUANA;24;5;-34,60320526;-58,37034242
-58,389896;-34,59956788;Montevideo;Av. Cordoba y Montevideo;27;CORDOBA AV. y MONTEVIDEO;10;22;-34,59897542;-58,39544593
-58,4123982;-34,62285025;Plaza Boedo;Carlos Calvo entre Virrey Liniers y Sinchez de Loria;28;CALVO, CARLOS y LINIERS VIRREY;12;6;-34,61401247;-58,40832707
-58,43457679;-34,60845904;Parque Centenario;Patricias Argentinas y Carlos Finlay;29;PATRICIAS ARGENTINAS AV. y FINLAY, CARLOS J. AV.;20;10;-34,61326296;-58,42999121
-58,39737836;-34,59039361;Pena;Azcuenaga y Pena;30;AZCUENAGA y PENA;12;1;-34,58845369;-58,39319024
-58,43970922;-34,60316236;Padilla;Padilla y Warnes Av;31;PADILLA y WARNES AV;12;17;-34,59927635;-58,43525663
-58,37353143;-34,6077278;Catedral;San Martin y Rivadavia;32;SAN MARTIN y RIVADAVIA AV.;10;5;-34,60320526;-58,37034242
-58,39871709;-34,59712661;Facultad de Medicina;Uriburu y Marcelo T. de Alvear;33;URIBURU JOSE E. y ALVEAR MARCELO T DE;12;22;-34,59897542;-58,39544593
-58,37415729;-34,59957943;Galerias Pacifico;San Martin 710, entre Viamonte y Cordoba;34;710 SAN MARTIN;10;5;-34,60320526;-58,37034242
-58,37185787;-34,59632739;Ingeniero Butty;Ing. Butty y Leandro N. Alem;35;BUTTY, E., ING. y ALEM, LEANDRO N. AV.;8;18;-34,59447543;-58,37628321
-58,37659603;-34,60536887;Maipu;Maipu y Sarmiento;36;MAIPU y SARMIENTO;10;12;-34,60280939;-58,38223635
-58,37786401;-34,60791436;Piedras;Esmeralda y Rivadavia;37;ESMERALDA y RIVADAVIA AV.;12;2;-34,6137215;-58,37767926
-58,38289538;-34,59699018;Plaza Libertad;Cerrito y Marcelo T. de Alvear;38;CERRITO y ALVEAR, MARCELO T. DE;12;12;-34,60280939;-58,38223635
-58,38765292;-34,60899159;Congreso II;Av Rivadavia y Parani;39;RIVADAVIA AV y PARANA;12;13;-34,61087343;-58,39112781
-58,3733711;-34,60439806;Sarmiento;Sarmiento 481, entre Reconquista y San Martin;40;481 SARMIENTO;10;5;-34,60320526;-58,37034242
-58,40759198;-34,63651941;Urquiza;Gral Urquiza y Rondeau;41;URQUIZA, GRAL. y RONDEAU;12;9;-34,63585199;-58,40822621
-58,37965184;-34,60464174;Diagonal Norte;Roque Sienz Pena y Suipacha;42;SAENZ PENA ROQUE AV y SUIPACHA;24;12;-34,60280939;-58,38223635
-58,39852145;-34,59918985;Plaza Houssay;Plaza Houssay;43;CORDOBA AV. y URIBURU JOSE E., PRES.;8;22;-34,59897542;-58,39544593
-58,41459488;-34,57548532;Zoologico;Av Del Libertador y Av Sarmiento;44;AV DEL LIBERTADOR y AV SARMIENTO;12;11;-34,57416223;-58,41699018
-58,38691266;-34,60161603;Uruguay;Tucumin y Uruguay;45;TUCUMAN y URUGUAY;12;12;-34,60280939;-58,38223635
-58,37438882;-34,61637848;Chile;Peru 726;46;726 PERU;18;2;-34,6137215;-58,37767926
-58,37355746;-34,61078242;Colegio Nacional Buenos Aires;Bolivar entre Adolfo Alsina y Moreno;47;251 BOLIVAR;10;2;-34,6137215;-58,37767926
-58,37159486;-34,60549118;Peron;Peron Juan entre 25 de Mayo y Reconquista;48;PERON JUAN D y RECONQUISTA;15;5;-34,60320526;-58,37034242
-58,4224224;-34,62881737;Treinta y Tres Orientales;Constitucion 4101 y Treinta y Tres Orientales;49;4101  CONSTITUCION;12;3;-34,62800848;-58,42406389
-58,40114778;-34,58367733;Hospital Rivadavia;Lucena Pereyra 2516 entre Las Heras y Pagano;50;2516 PEREYRA LUCENA;19;23;-34,58245986;-58,40662574
-58,38244877;-34,60158617;Tucumin;Tucumin y Cerrito;51;TUCUMAN y CERRITO;12;12;-34,60280939;-58,38223635
-58,41466775;-34,60708901;Sinchez de Bustamante;Sinchez de Bustamante y Peron Juan;52;SANCHEZ DE BUSTAMANTE y PERON JUAN D;12;4;-34,60324799;-58,41692913
-58,3742823;-34,59588144;Ricardo Rojas;San Martin 1031;53;1031 SAN MARTIN;12;18;-34,59447543;-58,37628321
-58,42170461;-34,59822218;Acuna de Figueroa;Lavalle y Acuna de Figueroa;54;LAVALLE y ACUNA DE FIGUEROA FRANCISCO;12;4;-34,60324799;-58,41692913
-58,36962171;-34,59933746;Bouchard;Viamonte 101 y Bouchard;55;101 VIAMONTE;12;5;-34,60320526;-58,37034242
-58,42507243;-34,58937118;Plaza Palermo Viejo;Costa Rica y Malabia;56;COSTA RICA y MALABIA;10;8;-34,58900656;-58,42230475
-58,37057662;-34,61338465;Belgrano;Balcarce 482 entre Belgrano y Venezuela;57;482 BALCARCE;10;14;-34,61491153;-58,36574412
-58,43462632;-34,57518967;Ministro Carranza;Santa Fe 5327 entre Dorrego y Arevalo;58;5327 SANTA FE AV;12;21;-34,58015377;-58,43447518
-58,41149532;-34,59022448;Coronel Diaz;Guemes 3328 y Coronel Diaz;59;3328 GUEMES;12;16;-34,59505198;-58,40788385
-58,37115547;-34,6016385;25 de Mayo;25 de Mayo y Lavalle;60;25 DE MAYO y LAVALLE;12;5;-34,60320526;-58,37034242
-58,37083437;-34,60908604;Ministerio de Economia;Balcarce 101 entre Av. Hipolito Yrigoyen y Alsina;61;101 BALCARCE;24;5;-34,60320526;-58,37034242
-58,37690072;-34,59851552;Cordoba;Maipu 820;62;820 MAIPU;12;18;-34,59447543;-58,37628321
-58,37272352;-34,59946925;Reconquista;Reconquista 716 y Av Cordoba;63;716 RECONQUISTA;12;5;-34,60320526;-58,37034242
-58,39443968;-34,59414903;Riobamba;Riobamba y Juncal;64;RIOBAMBA y JUNCAL;12;22;-34,59897542;-58,39544593
-58,41593968;-34,58721574;Juliin alvarez;Guemes 3822 entre Juliin alvarez y Araoz;65;3822 GUEMES;12;8;-34,58900656;-58,42230475
-58,41385893;-34,59462914;Billinghurst;De la Circova 3508;66;3508 DE LA CARCOVA;12;16;-34,59505198;-58,40788385
-58,42547747;-34,63850092;Senillosa;Senillosa 1905 y zanartu;67;1905 SENILLOSA;10;3;-34,62800848;-58,42406389
-58,38539757;-34,60664735;Rivarola;Dr. Rodolfo Rivarola 175 entre Tte. Gral. Juan Domingo Peron y Bartolome Mitre;68;175 RIVAROLA RODOLFO DR;12;12;-34,60280939;-58,38223635
-58,40435606;-34,59586235;Ecuador;Ecuador 1200 y Mansilla;69;ECUADOR y MANSILLA LUCIO NORBERTO;10;16;-34,59505198;-58,40788385
-58,42581644;-34,59267251;Arioz;Arioz 1413 entre Gorriti y Honduras;70;1413 ARAOZ;12;8;-34,58900656;-58,42230475
-58,38284297;-34,60299577;Cerrito;Av. Roque Saenz Pena 1149 entre Libertad y Cerrito;71;1149 SAENZ PENA ROQUE AV;20;12;-34,60280939;-58,38223635
-58,3745525;-34,61365039;Venezuela;Peru 490 y Venezuela;72;490 PERU;18;2;-34,6137215;-58,37767926
-58,37170591;-34,63081221;Ruy Diaz de Guzmin;Ruy Diaz de Guzmin y Av. Martin Garcia;73;RUY DIAZ DE GUZMAN y GARCIA MARTIN AV;10;15;-34,62707235;-58,37307255
-58,4342428;-34,60457178;Instituto Leloir;Av. Patricias Argentinas 401, entre Juana de Ibarbourou y Av. Machado;74;401  PATRICIAS ARGENTINAS AV;24;17;-34,59927635;-58,43525663
-58,3989047;-34,61212359;Plaza Primero de Mayo;Pichincha entre Adolfo Alsina y Moreno;75;PICHINCHA y ALSINA ADOLFO;12;20;-34,61726355;-58,39861096
-58,39492731;-34,60757265;Ayacucho;Ayacucho entre Peron Juan y Bartolome Mitre;76;AYACUCHO y PERON JUAN D;12;13;-34,61087343;-58,39112781
-58,3948309;-34,61127031;Sarandi;Sarandi entre Adolfo Alsina e Hipolito Yrigoyen;77;SARANDI e YRIGOYEN HIPOLITO AV;12;13;-34,61087343;-58,39112781
-58,38033824;-34,59141569;Suipacha y Arroyo;Arroyo y Suipacha;78;ARROYO y SUIPACHA;12;18;-34,59447543;-58,37628321
-58,36396908;-34,61172068;Azucena Villaflor;Azucena Villaflor y Pierina Dealessi;79;VILLAFLOR AZUCENA y DEALESSI PIERINA;20;14;-34,61491153;-58,36574412
-58,43031987;-34,62412955;Doblas;Doblas 608 y Valle;80;608 DOBLAS;10;3;-34,62800848;-58,42406389
-58,37087877;-34,61584741;Balcarce;Balcarce 683 entre Chile y Defensa;81;683 BALCARCE;18;14;-34,61491153;-58,36574412
-58,42626664;-34,6074295;Hospital Italiano;Rawson entre Potosi y Diaz Velez;82;RAWSON y DIAZ VELEZ AV;12;10;-34,61326296;-58,42999121
-58,38841509;-34,60300444;Parani;Lavalle enttre Montevideo y Parani;83;LAVALLE y PARANA;12;12;-34,60280939;-58,38223635
-58,39547166;-34,60229012;Lavalle;Ayacucho 595 entre Tucumin y Lavalle;84;595 AYACUCHO;12;22;-34,59897542;-58,39544593
-58,409034;-34,59461611;Aguero;Aguero y Mansilla;85;AGUERO Y MANSILLA;12;16;-34,59505198;-58,40788385
-58,40172037;-34,62135608;Saavedra;Saavedra 1027 entre Carlos Calvo Y Humberto 1º;86;1027 SAAVDREA;12;20;-34,61726355;-58,39861096
-58,4315359;-34,61982854;Guayaquil;Guayaquil 213 y Doblas;87;213 GUAYAQUIL;10;10;-34,61326296;-58,42999121
-58,40423005;-34,61286709;Misiones;Misiones entre Adolfo Alsina y Moreno;88;MISIONES y ALSINA ADOLFO;12;6;-34,61401247;-58,40832707
-58,4053127;-34,58247238;Cabello;Cabello entre Cnel Diaz y Ortiz de Ocampo;89;CABELLO y DIAZ CNEL AV;12;23;-34,58245986;-58,40662574
-58,39936857;-34,58711721;Gutierrez;Juan Maria Gutierrez entre Aguero y Laprida;90;GUTIERREZ JUAN MARIA y AGUERO;12;1;-34,58845369;-58,39319024
-58,39754707;-34,61749149;Pasco;Pasco 708 entre Chile y Av Independencia;91;708 PASCO;12;20;-34,61726355;-58,39861096
-58,40501915;-34,63172469;Salcedo;Salcedo 2908 y Dean Funes;92;2908 SALCEDO;12;9;-34,63585199;-58,40822621
-58,39476949;-34,62060134;Carlos Calvo;Carlos Calvo y Sarandi;93;CALVO CARLOS y SARANDI;12;20;-34,61726355;-58,39861096
-58,44944206;-34,59181912;Guzmin;Guzmin y Leiva;94;GUZMaN y LEIVA;20;0;-34,5899847;-58,44848987
-58,37817354;-34,6020919;Esmeralda;Esmeralda 510;95;510 ESMERALDA;10;12;-34,60280939;-58,38223635
-58,41158489;-34,60289114;Carlos Gardel;Guardia Vieja 3302;96;3302 GUARDIA VIEJA;12;4;-34,60324799;-58,41692913
-58,42740141;-34,63525028;Avelino Diaz;Avelino Diaz 499 y Doblas;97;499 DIAZ AVELINO;10;3;-34,62800848;-58,42406389
-58,37812172;-34,611714;Moreno;Moreno 834 entre Tacuari y Piedras;98;834 MORENO;10;2;-34,6137215;-58,37767926
-58,43561549;-34,59628054;Malabia;Malabia 780 y Loyola;99;780 MALABIA;12;17;-34,59927635;-58,43525663
-58,43677115;-34,59270672;Castillo;Castillo 815 entre Thames y Serrano;100;815 CASTILLO;12;17;-34,59927635;-58,43525663
-58,4424227;-34,58904915;Fitz Roy;Fitz Roy 1092 y Loyola;101;1092 FITZ ROY;12;0;-34,5899847;-58,44848987
-58,44598675;-34,58643989;Roseti;Roseti 50 y Av Dorrego;102;50 ROSETI;12;0;-34,5899847;-58,44848987
-58,40353315;-34,57741462;Malba;Av Figueroa Alcorta y San Martin de Tours;103;FIGUEROA ALCORTA, PRES. AV. y SAN MARTIN DE TOURS;12;23;-34,58245986;-58,40662574
-58,45506219;-34,58754836;Federico Lacroze;Av Corrientes 6800 y Federico Lacroze;104;6900 CORRIENTES AV;20;0;-34,5899847;-58,44848987
-58,40096231;-34,63397763;15 de Noviembre;15 de Noviembre de 1889 2687 entre Catamarca y Jujuy;105;2687 15 DE NOVIEMBRE DE 1889;15;9;-34,63585199;-58,40822621
-58,39589747;-34,6151962;Rincon;Venezuela 2091 y Rincon;106;2091 REPUBLICA BOLIVARIANA DE VENEZUELA;12;20;-34,61726355;-58,39861096
-58,39594436;-34,63043769;Hospital Garrahan;Hospital Garrahan: Av Brasil y Pichincha;107;BRASIL AV y PICHINCHA AV;10;19;-34,63077868;-58,39062087
-58,35625741;-34,62878078;Usina del Arte;Caffarena Agustin y Don Pedro de Mendoza;108;CAFFARENA AGUSTIN y DON PEDRO DE MENDOZA;24;7;-34,63452619;-58,36182076
-58,42959068;-34,59669374;Lerma;Lerma 185 y Juliin alvarez;109;185 LERMA;12;17;-34,59927635;-58,43525663
-58,4154594;-34,6017606;Guardia Vieja;Guardia Vieja 3606 entre Billinghurst y Mario Bravo;110;3606 GUARDIA VIEJA;12;4;-34,60324799;-58,41692913
-58,36299966;-34,60496916;Macacha Guemes;Macacha Guemes y Juana Manso;111;GUEMES MACACHA y MANSO JUANA;20;5;-34,60320526;-58,37034242
-58,38076631;-34,6123893;9 de Julio;9 de Julio y Moreno;112;9 DE JULIO AV y MORENO;10;2;-34,6137215;-58,37767926
-58,42520466;-34,58566944;Guatemala;Guatemala 4799 entre J.L. Borges y Gurruchaga;113;4799 GUATEMALA;12;8;-34,58900656;-58,42230475
-58,37253506;-34,5947531;Della Paolera;Carlos M. Della Paolera 297 entre Leandro N Alem y Eduardo Madero;114;297 DELLA PAOLERA CARLOS M;20;18;-34,59447543;-58,37628321
-58,39078628;-34,58781205;Quintana;Manuel Quintana 600;115;600 QUINTANA MANUEL;10;1;-34,58845369;-58,39319024
-58,40259838;-34,59210424;Hospital Alemin;Beruti y Ecuador;116;BERUTI y ECUADOR;12;16;-34,59505198;-58,40788385
-58,37421801;-34,61994044;Humberto Primo;Peru 1016 entre Humberto Primo y Carlos Calvo;117;1016 PERU;10;2;-34,6137215;-58,37767926
-58,40282668;-34,61681258;Mexico;Saavedra y Mexico;118;MEXICO y SAAVEDRA;12;20;-34,61726355;-58,39861096
-58,39768427;-34,58837184;Emilio Mitre;Plaza Emilio Mitre - Larrea y Pacheco de Melo;119;LARREA y PACHECO DE MELO JOSE;12;1;-34,58845369;-58,39319024
-58,40911048;-34,61754909;Hospital Ramos Mejia;Agrelo entre  Gral. Urquiza, y Gral. La Rioja;120;URQUIZA GRAL y AGRELO;12;6;-34,61401247;-58,40832707
-58,42826759;-34,60081839;Yatay;Yatay 925 entre Humahuaca y Guardia Vieja;121;925 YATAY;12;17;-34,59927635;-58,43525663
-58,42040744;-34,59162446;Costa Rica;Costa Rica 4090 y Acuna de Figueroa;122;4090 COSTA RICA;12;8;-34,58900656;-58,42230475
-58,42104415;-34,58542422;Armenia;Armenia 2393 y Charcas;123;2393 ARMENIA;12;8;-34,58900656;-58,42230475
-58,41231356;-34,58108161;Ugarteche;Ugarteche entre Cabello y Las Heras;124;UGARTECHE y CABELLO;12;23;-34,58245986;-58,40662574
-58,42821717;-34,58348011;Oro;Fray Justo Santamaria de Oro y Guatemala;125;FRAY JUSTO SANTAMARIA DE ORO y GUATEMALA;10;21;-34,58015377;-58,43447518
-58,36943055;-34,63997121;Ministerio de Justicia y Seguridad;Regimiento de Patricios y Arioz de Lamadrid;126;REGIMIENTO DE PATRICIOS AV y ARAOZ DE LAMADRID GREGORIO;10;7;-34,63452619;-58,36182076
-58,45292683;-34,59221248;Santos Dumont y Otero;Santos Dumont 4380 y Otero;127;4380 DUMONT SANTOS;10;0;-34,5899847;-58,44848987
-58,36823197;-34,60412886;Plaza Hipolito Bouchard;Plaza Hipolito Bouchard - Av Eduardo Madero y Peron Juan;128;MADERO EDUARDO AV y PERON JUAN D;12;5;-34,60320526;-58,37034242
-58,43495487;-34,60016466;Velasco;Velasco 285 entre Juliin alvarez y Lavalleja;129;285 VELASCO RAMIREZ DE JUAN;12;17;-34,59927635;-58,43525663
-58,3742851;-34,59194086;Retiro II;Plaza Fuerza Aerea: Av. Dr. J. Ramos Mejia y Av Del Libertador;130;DEL LIBERTADOR AV y RAMOS MEJIA DR AV;40;18;-34,59447543;-58,37628321
-58,37421003;-34,59184649;Retiro III;Plaza Fuerza Aerea: Av. Dr. J. Ramos Mejia y Av Del Libertador;131;DEL LIBERTADOR AV y RAMOS MEJIA DR AV;10;18;-34,59447543;-58,37628321
-58,37367608;-34,60312087;Corrientes;Av Corrientes y San Martin;132;CORRIENTES AV y SAN MARTIN;12;5;-34,60320526;-58,37034242
-58,43438251;-34,58103992;Nicaragua;Nicaragua 5690 entre Bonpland y Fitz Roy;133;5690 NICARAGUA;12;21;-34,58015377;-58,43447518
-58,41551584;-34,61187588;Don Bosco;Don Bosco y Virrey LIniers;134;DON BOSCO y LINIERS VIRREY;12;6;-34,61401247;-58,40832707
-58,37976485;-34,59645576;Marcelo T. de Alvear;Marcelo T de Alvear y Suipacha;135;ALVEAR MARCELO T y SUIPACHA;12;18;-34,59447543;-58,37628321
-58,44290127;-34,59981257;Acevedo;Acevedo y Padilla;136;ACEVEDO y PADILLA;12;17;-34,59927635;-58,43525663
-58,36747001;-34,6159264;Azopardo y Chile;Azopardo 700 y Chile;137;AZOPARDO y CHILE;12;14;-34,61491153;-58,36574412
-58,38776667;-34,63494896;Hospital Britinico;Perdriel y Finochietto Enrique;138;PERDRIEL y FINOCHIETTO ENRIQUE DR.;12;19;-34,63077868;-58,39062087
-58,41315047;-34,63330898;Virrey Liniers;Salcedo 3401 y Virrey Liniers;139;3401 SALCEDO;12;9;-34,63585199;-58,40822621
-58,41577504;-34,63514804;Las Casas;Las Casas 3587 entre Av. Boedo y Alzaga;140;3587 LAS CASAS;10;9;-34,63585199;-58,40822621
-58,39041055;-34,61183795;Solis y Alsina;Solis 225 y Adolfo Alsina;141;225 SOLIS;12;13;-34,61087343;-58,39112781
-58,4288882;-34,59055422;Armenia y Gorriti;Armenia 1525 entre Gorriti y Honduras;142;1525 ARMENIA;10;8;-34,58900656;-58,42230475
-58,4157587;-34,60463523;Billinghurst y Valentin Gomez;Billinghurst 455 y Valentin Gomez;143;455 BILLINGHURST;12;4;-34,60324799;-58,41692913
-58,40579041;-34,60177971;Pueyrredon;Boulogne Sur Mer y Tucuman;144;BOULOGNE SUR MER y TUCUMAN;12;16;-34,59505198;-58,40788385
-58,43783661;-34,58046947;Ravignani;Ravignani 1883 y Costa Rica;145;1883 RAVIGNANI EMILIO DR;12;21;-34,58015377;-58,43447518
-58,40778755;-34,62219445;Hospital Frances;Hospital Frances: Carlos Calvo y La Rioja;146;CALVO CARLOS y LA RIOJA;12;6;-34,61401247;-58,40832707
-58,37910486;-34,62745541;Constitucion I;Av Brasil 1050 y Lima;147;1050 BRASIL AV;25;15;-34,62707235;-58,37307255
-58,37923189;-34,62749408;Constitucion II;Av Brasil 1060 y Lima;148;1060 BRASIL AV;10;15;-34,62707235;-58,37307255
-58,38143489;-34,61536396;Lima;Lima y Mexico;149;LIMA y MEXICO;10;2;-34,6137215;-58,37767926
-58,36309051;-34,61808202;Vera Penaloza;Rosario Vera Penaloza y Olga Cossettini;150;ROSARIO VERA PENALOZA y OLGA COSSETINI;20;14;-34,61491153;-58,36574412
-58,3609058;-34,61180791;Aime Paine;Azucena Villaflor 553 entre Calabria y Aime Paine;151;553 VILLAFLOR AZUCENA;24;14;-34,61491153;-58,36574412
-58,35913143;-34,61748582;Julieta Lanteri;Vera Penalosa entre Calabria y Julieta Lanteri;152;VERA PENALOZA ROSARIO y LANTERI JULIETA;12;14;-34,61491153;-58,36574412
-58,36208336;-34,63069281;Juan Manuel Blanes;Juan Manuel Blanes 383;153;383 BLANES JUAN MANUEL;10;7;-34,63452619;-58,36182076
-58,41210472;-34,60022486;Gallo;Gallo y Tucumin;154;GALLO y TUCUMAN;12;4;-34,60324799;-58,41692913
-58,4125593;-34,64172791;Parque Jose Evaristo Uriburu;Pque. Jose E. Uriburu - Almafuerte 300;155;300 ALMAFUERTE AV.;12;9;-34,63585199;-58,40822621
-58,40796556;-34,57784911;Plaza Alemania;Plaza Alemania: Del Libertador Av y Cavia;156;DEL LIBERTADOR AV y CAVIA;12;23;-34,58245986;-58,40662574
-58,42795218;-34,62830921;Senillosa y Zuviria;Senillosa 989 y Zuviria;157;989 SENILLOSA;12;3;-34,62800848;-58,42406389
-58,44509866;-34,59283921;Villarroel;Villarroel y Humboldt;158;VILLARROEL y HUMBOLDT;12;0;-34,5899847;-58,44848987
-58,43739683;-34,58503639;Gorriti;Fitz Roy 1590 y Gorriti;159;1590 FITZ ROY;10;21;-34,58015377;-58,43447518
-58,42021025;-34,57296237;Godoy Cruz y Libertador;Godoy Cruz 3291 entre Av Del Libertador y Segui;160;3291 GODOY CRUZ;12;11;-34,57416223;-58,41699018
-58,41967786;-34,60205792;Humahuaca;Humahuaca 3918;161;3918 HUMAHUACA;12;4;-34,60324799;-58,41692913
-58,40194517;-34,6092391;Larrea y Bartolome Mitre;Larrea entre Bartolome Mitre y Av Rivadavia;162;LARREA y MITRE BARTOLOME;12;6;-34,61401247;-58,40832707
-58,4066168;-34,60935549;Once II;Bartolome Mitre y Av Pueyrredon;163;MITRE BARTOLOME y PUEYRREDON AV;20;6;-34,61401247;-58,40832707
-58,36675529;-34,61806695;Facultad de Ingenieria;Estados Unidos entre Azopardo y Huergo Av;164;ESTADOS UNIDOS y AZOPARDO;12;14;-34,61491153;-58,36574412
-58,40785166;-34,59776358;Plaza Monsenor Miguel de Andrea;Plaza Monsenor Miguel de Andrea (Anchorena 900);165;901 ANCHORENA TOMAS MANUEL;12;16;-34,59505198;-58,40788385
-58,39331745;-34,58914974;Cementerio de la Recoleta;Vicente Lopez 2050 entre Junin y Uriburu;166;2050 LOPEZ VICENTE;12;1;-34,58845369;-58,39319024
-58,42878106;-34,61506435;Hipolito Yrigoyen;Hipolito Yrigoyen entre Muniz y La Plata;167;YRIGOYEN HIPOLITO AV y LA PLATA AV;24;10;-34,61326296;-58,42999121
-58,38128261;-34,61861996;Estados Unidos;Estados Unidos y Lima;168;ESTADOS UNIDOS y LIMA;10;2;-34,6137215;-58,37767926
-58,41192476;-34,61202003;Facultad de Psicologia;Hipolito Yrigoyen y 24 de Noviembre;169;YRIGOYEN HIPOLITO y 24 DE NOVIEMBRE;12;6;-34,61401247;-58,40832707
-58,40596622;-34,5997327;San Luis y Ecuador;San Luis 2862 entre Ecuador y Boulogne Sur Mer;170;2862 SAN LUIS;12;16;-34,59505198;-58,40788385
-58,39952687;-34,60324295;Pasteur;Pasteur 501 entre Tucumin y Lavalle;171;501 PASTEUR;12;22;-34,59897542;-58,39544593
-58,37098493;-34,62560718;Brasil;Brasil y Defensa;172;BRASIL AV y DEFENSA;10;15;-34,62707235;-58,37307255
-58,37475251;-34,62205994;Plaza Cecilia Grierson;Av San Juan 632;173;632 SAN JUAN AV;10;15;-34,62707235;-58,37307255
-58,39154878;-34,59726147;Ministerio de Educacion;Marcelo T De Alvear 1698 y Rodriguez Pena;174;1698 ALVEAR MARCELO T DE;10;22;-34,59897542;-58,39544593
-58,37810664;-34,60371878;Esmeralda y Corrientes;Esmeralda y Av Corrientes;175;ESMERALDA y CORRIENTES AV;12;12;-34,60280939;-58,38223635
-58,36093315;-34,63407209;Pinzon;Pinzon 469 y Martin Rodriguez;176;469 PINZON;12;7;-34,63452619;-58,36182076
-58,41215854;-34,56807389;Planetario;Av. Roldan, Belisario y Av. Sarmiento;177;ROLDAN BELISARIO AV y SARMIENTO AV;12;11;-34,57416223;-58,41699018
-58,4248666;-34,62345741;Jose Marmol;Jose Marmol 803 y Estados Unidos;178;803 MARMOL JOSE;10;3;-34,62800848;-58,42406389
-58,36039931;-34,63911407;La Boca;Don Pedro de Mendoza 1819;179;DON PEDRO DE MENDOZA AV 1819;12;7;-34,63452619;-58,36182076
-58,42047096;-34,61980265;Castro y Mexico;Castro 680 entre Mexico y Agrelo;180;680 CASTRO;12;3;-34,62800848;-58,42406389
-58,41191367;-34,59269661;Billinghurst y Mansilla;Billinghurst 1533 y Mansilla;181;1853 BILLINGHURST;12;16;-34,59505198;-58,40788385
-58,43523361;-34,57819095;Ravignani y Guatemala;Ravignani 2171 y Guatemala;182;2171 RAVIGNANI;12;21;-34,58015377;-58,43447518
-58,38969191;-34,61563763;Virrey Cevallos;Mexico 1652 entre Virrey Cevallos y Solis;183;1652 MEXICO;12;13;-34,61087343;-58,39112781
-58,39131863;-34,63067891;Pedro Echague;Pedro Echague 1878 entre Combate de los Pozos y Av Entre Rios;184;1878 ECHAGUE PEDRO;12;19;-34,63077868;-58,39062087
-58,42178258;-34,63136997;Av Pavon y 33 Orientales;33 Orientales 1439, entre Av. Pavon y Av. Garay;185;1439 TREINTA Y TRES ORIENTALES;12;3;-34,62800848;-58,42406389
-58,40714253;-34,61255129;Catamarca;Adolfo Alsina 2910 y Catamarca;186;2910 ALSINA ADOLFO;12;6;-34,61401247;-58,40832707
-58,43179118;-34,61766675;Parque Rivadavia;Chaco 250;187;250 CHACO;12;10;-34,61326296;-58,42999121
-58,43350602;-34,61079628;Aranguren;Aranguren 188 entre Portugal y Eduardo Acevedo;188;188 ARANGUREN JUAN F DR;12;10;-34,61326296;-58,42999121
-58,38558602;-34,58847469;Posadas;Posadas 1350 entre Montevideo y Rodriguez Pena;189;1350 POSADAS;12;1;-34,58845369;-58,39319024
-58,41122742;-34,58507776;Juncal;Juncal 3320 y Jeronimo Salguero;190;3320 JUNCAL;12;23;-34,58245986;-58,40662574
-58,38091227;-34,60823179;Rivadavia y 9 de Julio;Rivadavia y Carlos pellegrini;191;RIVADAVIA AV y PELLEGRINI CARLOS;10;12;-34,60280939;-58,38223635
-58,3856151;-34,5977988;Talcahuano;Talcahuano 1034 y Marcelo T de Alvear;192;1034 TALCAHUANO;12;12;-34,60280939;-58,38223635
-58,40597385;-34,59111088;Arenales y Aguero;Arenales 2882 y Aguero;193;2882 ARENALES;12;16;-34,59505198;-58,40788385
-58,42257204;-34,60595248;Peron y Francisco Acuna de Figueroa;Peron, Juan Domingo Tte 3989 entre Francisco Acuna de Figueroa y Medrano;194;3989 PERON JUAN DOMINGO TTE;10;4;-34,60324799;-58,41692913
-58,38745383;-34,62704914;Plaza Garay;Av Juan de Garay y Luis Sienz Pena;195;GARAY JUAN DE AV y SAENZ PENA LUIS PRES;12;19;-34,63077868;-58,39062087
-58,36601905;-34,62777634;Hospital Argerich;Pi y Margall 750 entre Necochea y Alte. Brown;196;750 PI Y MARGALL;12;15;-34,62707235;-58,37307255
-58,42348086;-34,61359626;Quintino Bocayuva;Quintino Bocayuva y Don Bosco;197;BOCAYUVA QUINTINO y DON BOSCO;12;10;-34,61326296;-58,42999121
-58,40413806;-34,63438001;Hospital Sardi;Citulo Castillo 2896 y Dean Funes;198;2896 CASTILLO CATULO;10;9;-34,63585199;-58,40822621
-58,41588155;-34,62243894;Estados Unidos y Boedo;Estados Unidos 3568 entre Boedo y Maza;199;3568 ESTADOS UNIDOS;12;3;-34,62800848;-58,42406389
-58,40436108;-34,58819146;Austria y French;Austria 2080 entre French y Juncal;200;2080  AUSTRIA;12;23;-34,58245986;-58,40662574
